KUIPER-00074            
1 64821U 25151F   25365.63320075  .00005632  00000+0  76617-3 0  9997
2 64821  51.9010 231.5371 0013936  49.5040 310.7134 14.79948925 25368
KUIPER-00075            
1 64822U 25151G   25365.53015211  .00070862  00000+0  17430-2 0  9994
2 64822  51.8716 192.9377 0003549  45.1943 314.9333 15.39969483 25894
KUIPER-00076            
1 64823U 25151H   25365.63049354  .00006201  00000+0  84208-3 0  9995
2 64823  51.8997 234.0421 0005472  50.8790 309.2658 14.79909356 25336
KUIPER-00077            
1 64824U 25151J   25365.35500026  .00006755  00000+0  91488-3 0  9995
2 64824  51.9007 240.2677 0006226  16.4160 343.7003 14.79894278 25220
KUIPER-00078            
1 64825U 25151K   25365.39148979  .00008617  00000+0  11569-2 0  9995
2 64825  51.8989 237.5992 0008870  67.2003 292.9896 14.79952549 25260
KUIPER-00079            
1 64826U 25151L   25365.35222781  .00005795  00000+0  78785-3 0  9994
2 64826  51.8976 242.7579 0012079  18.6774 341.4630 14.79941229 26380
KUIPER-00080            
1 64827U 25151M   25365.38606037  .00007302  00000+0  98509-3 0  9990
2 64827  51.8987 242.6126 0006407  39.7391 320.4039 14.79959029 25192
KUIPER-00082            
1 64828U 25151N   25365.63595786  .00017687  00000+0  23434-2 0  9998
2 64828  51.9004 229.0267 0005463  69.8257 290.3293 14.79919102 25404
KUIPER-00083            
1 64829U 25151P   25365.35767713  .00007405  00000+0  99903-3 0  9991
2 64829  51.9006 237.7493 0011244  21.7809 338.3630 14.79916378 26443
KUIPER-00084            
1 64830U 25151Q   25364.87413084  .00033708  00000+0  44279-2 0  9998
2 64830  51.9017 249.8699 0009538 352.8804   7.2022 14.79910988 25048
KUIPER-00085            
1 64831U 25151R   25365.33204789  .00006042  00000+0  82156-3 0  9999
2 64831  51.9022 230.3871 0008027  40.3697 319.7860 14.79888566 25354
KUIPER-00086            
1 64832U 25151S   25365.38871909  .00006956  00000+0  94018-3 0  9993
2 64832  51.9003 240.1196 0011081  18.2727 341.8631 14.79921239 25228
KUIPER-00087            
1 64833U 25151T   25365.34004029 -.00004072  00000+0 -50552-3 0  9995
2 64833  51.8984 222.8242 0000928  74.7611 285.3454 14.79925084 25454
KUIPER-00089            
1 64834U 25151U   25365.60489620  .00019604  00000+0  25929-2 0  9993
2 64834  51.8990 226.6597 0002268 104.8132 255.3082 14.79935240 25436
KUIPER-00090            
1 64835U 25151V   25365.64223954  .00004706  00000+0  69736-3 0  9996
2 64835  51.8972 218.6450 0004527 120.9726 239.1680 14.76633411 25542
KUIPER-00091            
1 64836U 25151W   25365.60750309  .00004783  00000+0  65561-3 0  9999
2 64836  51.8995 224.1530 0008670  72.5940 287.5970 14.79951508 25465
KUIPER-00092            
1 64837U 25151X   25365.32936088  .00016233  00000+0  21523-2 0  9991
2 64837  51.8982 232.8824 0003368  60.3806 299.7491 14.79948917 26531
KUIPER-00093            
1 64838U 25151Y   25365.05643530  .00007868  00000+0  10594-2 0  9999
2 64838  51.8999 236.5735 0003330  74.2154 285.9175 14.79956260 25244
KUIPER-00094            
1 64839U 25151Z   25365.58349209  .00010597  00000+0  75508-3 0  9994
2 64839  51.8880 215.6582 0004511  55.0746 305.0650 15.05069923 25588
KUIPER-00081            
1 65132U 25171A   25365.66668981  .00030696  00000+0  36858-2 0  9999
2 65132  51.8989  88.9930 0002650  62.4657 313.4555 14.83736324  5843
KUIPER-00088            
1 65133U 25171B   25365.48411298  .00006756  00000+0  98328-3 0  9998
2 65133  51.8999 107.7379 0007678 253.1409 106.8711 14.76809234 22683
KUIPER-00095            
1 65134U 25171C   25365.61233293  .00012780  00000+0  11482-2 0  9990
2 65134  51.8922  89.8442 0004421 259.9554 100.0917 14.95982076 22949
KUIPER-00096            
1 65135U 25171D   25365.47218257  .00010528  00000+0  14074-2 0  9996
2 65135  51.8998  99.7424 0009982 284.9648  75.0209 14.79923488 22794
KUIPER-00097            
1 65136U 25171E   25365.26694551  .00018251  00000+0  24138-2 0  9992
2 65136  51.9013 103.2662 0009751 283.8835  76.1042 14.79952787 22712
KUIPER-00098            
1 65137U 25171F   25365.46668313  .00009621  00000+0  12873-2 0  9996
2 65137  51.9008 104.7682 0006891 269.6294  90.3878 14.79987208 22067
KUIPER-00099            
1 65138U 25171G   25365.44377092  .00003509  00000+0  48879-3 0  9991
2 65138  51.9041  94.8384 0000427  60.2988 299.8017 14.79957513 22851
KUIPER-00100            
1 65139U 25171H   25365.66668981  .00024862  00000+0  34004-2 0  9995
2 65139  51.9007  91.2469 0002425  18.6438 304.9036 14.78383135  4936
KUIPER-00102            
1 65140U 25171J   25365.54509862  .00009780  00000+0  13088-2 0  9997
2 65140  51.8985  94.4227 0000723 108.1492 251.9549 14.79972812 22862
KUIPER-00103            
1 65141U 25171K   25365.49244257 -.00000341  00000+0 -15563-4 0  9994
2 65141  51.8993 112.1468 0005387 268.6365  91.3980 14.79942483 22618
KUIPER-00104            
1 65142U 25171L   25365.57943662  .00008890  00000+0  12890-2 0  9993
2 65142  51.9034  98.5713 0004828 322.9095  37.1532 14.76648883 22816
KUIPER-00105            
1 65143U 25171M   25365.59905897  .00008105  00000+0  10893-2 0  9994
2 65143  51.8997 106.7460 0011904 239.8779 120.1003 14.79958097 22701
KUIPER-00106            
1 65144U 25171N   25365.48438841  .00012946  00000+0  11404-2 0  9990
2 65144  51.8945 104.8169 0008617 232.6181 127.4005 14.96727586 22725
KUIPER-00107            
1 65145U 25171P   25365.66668981  .00039611  00000+0  49685-2 0  9991
2 65145  51.9010  88.9153 0000889  70.4027 174.1259 14.81797421  3150
KUIPER-00108            
1 65146U 25171Q   25365.56990265  .00007399  00000+0  99463-3 0  9992
2 65146  51.9027 101.8099 0008070 248.0371 111.9734 14.80086039 22779
KUIPER-00109            
1 65147U 25171R   25365.47480628  .00001790  00000+0  26366-3 0  9991
2 65147  51.9020  97.1800 0011429 262.5064  97.4600 14.79954611 22826
KUIPER-00110            
1 65148U 25171S   25365.49520674  .00009737  00000+0  13034-2 0  9996
2 65148  51.9009 109.6930 0002146 289.2597  70.8133 14.79965208 22640
KUIPER-00111            
1 65149U 25171T   25365.52345252  .00010208  00000+0  13647-2 0  9993
2 65149  51.8975 114.4941 0008026 250.1432 109.8666 14.79956850 22586
KUIPER-00112            
1 65150U 25171U   25365.50859934 -.00011936  00000+0 -15393-2 0  9991
2 65150  51.9025  97.0890 0008166 293.0159  66.9942 14.79906048 22822
KUIPER-00114            
1 65151U 25171V   25365.52077132  .00006742  00000+0  91282-3 0  9995
2 65151  51.9017 117.0448 0005775 234.5951 125.4473 14.79914703 22545
KUIPER-00115            
1 65152U 25171W   25365.59641041  .00005497  00000+0  74871-3 0  9990
2 65152  51.9010 109.1955 0009109 261.5781  98.4149 14.79962710 22663
KUIPER-00116            
1 65153U 25171X   25365.48972911  .00006988  00000+0  94370-3 0  9994
2 65153  51.8995 114.7075 0009740 222.1413 137.8801 14.79956876 22575
KUIPER-00118            
1 65154U 25171Y   25365.62211189 -.00000022  00000+0  26147-4 0  9996
2 65154  51.8998 116.5792 0000367 196.4941 163.6009 14.79937020 22566
KUIPER-00119            
1 65155U 25171Z   25365.50058391  .00009148  00000+0  12278-2 0  9993
2 65155  51.9006 104.6999 0007503 256.1840 103.8288 14.79907150 22719
KUIPER-00120            
1 65762U 25217A   25365.66668981 -.00033509  00000+0 -47546-2 0  9993
2 65762  51.8993 352.7494 0003350  80.2922 126.1240 14.76545390  5163
KUIPER-00132            
1 65763U 25217B   25365.29065134  .00058364  00000+0  15409-2 0  9991
2 65763  51.8636 334.9894 0008065  81.7631 278.4271 15.37864861 14895
KUIPER-00133            
1 65764U 25217C   25365.23093044  .00003867  00000+0  53555-3 0  9990
2 65764  51.9040 355.8233 0011781  91.8936 268.3376 14.79949727 14607
KUIPER-00139            
1 65765U 25217D   25365.17938054  .00016480  00000+0  12609-2 0  9992
2 65765  51.8866 347.5306 0008890  83.4981 276.7003 15.01980735 14718
KUIPER-00142            
1 65766U 25217E   25365.66668981 -.00012845  00000+0 -10896-2 0  9995
2 65766  51.8905 337.2180 0003026 112.7426  49.2075 14.96801579  5246
KUIPER-00145            
1 65767U 25217F   25365.66668981 -.00051606  00000+0 -54441-2 0  9998
2 65767  51.8976 339.2978 0008996  83.2471 346.8757 14.88983698  4599
KUIPER-00147            
1 65768U 25217G   25365.58335648 -.00063416  00000+0 -67925-2 0  9994
2 65768  51.8971 342.1311 0010600  85.6126 108.5430 14.88462506  3867
KUIPER-00148            
1 65769U 25217H   25365.41595776  .00028390  00000+0  17913-2 0  9999
2 65769  51.8789 340.9917 0010343 107.8926 252.3177 15.08842779 14823
KUIPER-00150            
1 65770U 25217J   25365.16604936  .00003974  00000+0  54989-3 0  9998
2 65770  51.9041 353.6091 0000347 121.4647 238.6349 14.79942826 14623
KUIPER-00151            
1 65771U 25217K   25365.58335648 -.00043812  00000+0 -56103-2 0  9992
2 65771  51.9018 344.2743 0000591 279.1467  95.8195 14.81000739  5746
KUIPER-00152            
1 65772U 25217L   25365.58335648 -.00015773  00000+0 -84010-3 0  9997
2 65772  51.8877 334.4137 0002783  93.5563  96.5707 15.14133788  5449
KUIPER-00153            
1 65773U 25217M   25365.34527807  .00024824  00000+0  14515-2 0  9999
2 65773  51.8786 345.6616 0013506  87.2579 272.9943 15.11655266 14750
KUIPER-00155            
1 65774U 25217N   25365.58335648 -.00036343  00000+0 -11276-2 0  9998
2 65774  51.8675 333.6349 0008367  90.1337  77.7287 15.32667160  4448
KUIPER-00156            
1 65775U 25217P   25365.58335648 -.01731043  00000+0 -65213-1 0  9998
2 65775  51.8746 332.8882 0002780  99.8236  73.3824 15.29918475  5778
KUIPER-00158            
1 65776U 25217Q   25365.27282088  .00003154  00000+0  44243-3 0  9998
2 65776  51.8993 348.1337 0001004  43.7787 316.3254 14.79942119 14712
KUIPER-00163            
1 65777U 25217R   25365.58335648 -.00020533  00000+0 -26755-2 0  9993
2 65777  51.8977 349.2632 0000692 105.7588 124.4272 14.79888603  4719
